[{"OBJECT_NAME":"LIDE","OBJECT_ID":"2025-154A","EPOCH":"2026-03-09T17:40:09.364800","MEAN_MOTION":14.93720025,"ECCENTRICITY":0.00054258,"INCLINATION":97.682,"RA_OF_ASC_NODE":134.8153,"ARG_OF_PERICENTER":185.342,"MEAN_ANOMALY":174.7743,"EPHEMERIS_TYPE":0,"CLASSIFICATION_TYPE":"U","NORAD_CAT_ID":64869,"ELEMENT_SET_NO":999,"REV_AT_EPOCH":3415,"BSTAR":0.00043353011,"MEAN_MOTION_DOT":4.535e-5,"MEAN_MOTION_DDOT":0},{"OBJECT_NAME":"FENGYUN 1C DEB","OBJECT_ID":"1999-025CBV","EPOCH":"2026-03-08T13:20:44.308896","MEAN_MOTION":14.76950564,"ECCENTRICITY":0.01886082,"INCLINATION":98.8377,"RA_OF_ASC_NODE":348.5578,"ARG_OF_PERICENTER":327.9291,"MEAN_ANOMALY":31.055,"EPHEMERIS_TYPE":0,"CLASSIFICATION_TYPE":"U","NORAD_CAT_ID":31663,"ELEMENT_SET_NO":999,"REV_AT_EPOCH":540,"BSTAR":0.00053050003,"MEAN_MOTION_DOT":4.94e-5,"MEAN_MOTION_DDOT":0}]
